{"type": "FeatureCollection", "features": [ {"type": "Feature", "properties": {"norad_id": 30061, "name": "FENGYUN 1C DEB", "group": "fengyun-1c-debris", "lat": 62.77479204427371, "lon": -41.90123511354038, "alt_km": 1128.789710277947, "timestamp": "2025-12-27T12:55:14.778939+00:00", "meta": {"OBJECT_NAME": "FENGYUN 1C DEB", "OBJECT_ID": "1999-025PN", "EPOCH": "2025-12-27T07:17:08.633760", "MEAN_MOTION": 13.46544459, "ECCENTRICITY": 0.03734235, "INCLINATION": 101.8745, "RA_OF_ASC_NODE": 113.6824, "ARG_OF_PERICENTER": 217.6155, "MEAN_ANOMALY": 203.5782, "EPHEMERIS_TYPE": 0, "CLASSIFICATION_TYPE": "U", "NORAD_CAT_ID": 30061, "ELEMENT_SET_NO": 999, "REV_AT_EPOCH": 92295, "BSTAR": 0.004683576, "MEAN_MOTION_DOT": 4.255e-05, "MEAN_MOTION_DDOT": 0}, "tle": {"line1": "1 30061U 99025PN  25361.30357215  .00004255  00000+0  46836-2 0  9992", "line2": "2 30061 101.8745 113.6824 0373423 217.6155 203.5782 13.46544459922951"}}, "geometry": {"type": "Point", "coordinates": [-41.90123511354038, 62.77479204427371]}}, {"type": "Feature", "properties": {"norad_id": 30062, "name": "FENGYUN 1C DEB", "group": "fengyun-1c-debris", "lat": 45.91758156184009, "lon": 1.1166289081655234, "alt_km": 837.8372511684247, "timestamp": "2025-12-27T12:55:14.778949+00:00", "meta": {"OBJECT_NAME": "FENGYUN 1C DEB", "OBJECT_ID": "1999-025PP", "EPOCH": "2025-12-27T00:48:57.925728", "MEAN_MOTION": 14.07132066, "ECCENTRICITY": 0.00489248, "INCLINATION": 98.7805, "RA_OF_ASC_NODE": 9.8098, "ARG_OF_PERICENTER": 8.3192, "MEAN_ANOMALY": 4.5078, "EPHEMERIS_TYPE": 0, "CLASSIFICATION_TYPE": "U", "NORAD_CAT_ID": 30062, "ELEMENT_SET_NO": 999, "REV_AT_EPOCH": 97109, "BSTAR": 0.00054247833, "MEAN_MOTION_DOT": 8.75e-06, "MEAN_MOTION_DDOT": 0}, "tle": {"line1": "1 30062U 99025PP  25361.03400377  .00000875  00000+0  54248-3 0  9992", "line2": "2 30062  98.7805   9.8098 0048924   8.3192   4.5078 14.07132066971094"}}, "geometry": {"type": "Point", "coordinates": [1.1166289081655234, 45.91758156184009]}}, {"type": "Feature", "properties": {"norad_id": 30063, "name": "FENGYUN 1C DEB", "group": "fengyun-1c-debris", "lat": 28.858367172529015, "lon": 164.44403003678593, "alt_km": 825.9244550877465, "timestamp": "2025-12-27T12:55:14.778959+00:00", "meta": {"OBJECT_NAME": "FENGYUN 1C DEB", "OBJECT_ID": "1999-025PQ", "EPOCH": "2025-12-27T05:30:14.179392", "MEAN_MOTION": 14.15616457, "ECCENTRICITY": 0.00333526, "INCLINATION": 98.523, "RA_OF_ASC_NODE": 339.4083, "ARG_OF_PERICENTER": 93.7689, "MEAN_ANOMALY": 282.5784, "EPHEMERIS_TYPE": 0, "CLASSIFICATION_TYPE": "U", "NORAD_CAT_ID": 30063, "ELEMENT_SET_NO": 999, "REV_AT_EPOCH": 97870, "BSTAR": 9.4378018e-05, "MEAN_MOTION_DOT": 1.45e-06, "MEAN_MOTION_DDOT": 0}, "tle": {"line1": "1 30063U 99025PQ  25361.22933078  .00000145  00000+0  94378-4 0  9992", "line2": "2 30063  98.5230 339.4083 0033352  93.7689 282.5784 14.15616457978706"}}, "geometry": {"type": "Point", "coordinates": [164.44403003678593, 28.858367172529015]}}, {"type": "Feature", "properties": {"norad_id": 30064, "name": "FENGYUN 1C DEB", "group": "fengyun-1c-debris", "lat": -24.58008649299807, "lon": -171.8587177434625, "alt_km": 884.1739105311353, "timestamp": "2025-12-27T12:55:14.778970+00:00", "meta": {"OBJECT_NAME": "FENGYUN 1C DEB", "OBJECT_ID": "1999-025PR", "EPOCH": "2025-12-27T00:19:43.109760", "MEAN_MOTION": 14.14279308, "ECCENTRICITY": 0.00666272, "INCLINATION": 98.6612, "RA_OF_ASC_NODE": 11.6306, "ARG_OF_PERICENTER": 71.2018, "MEAN_ANOMALY": 343.2101, "EPHEMERIS_TYPE": 0, "CLASSIFICATION_TYPE": "U", "NORAD_CAT_ID": 30064, "ELEMENT_SET_NO": 999, "REV_AT_EPOCH": 97707, "BSTAR": 0.00019433965, "MEAN_MOTION_DOT": 3.37e-06, "MEAN_MOTION_DDOT": 0}, "tle": {"line1": "1 30064U 99025PR  25361.01369340  .00000337  00000+0  19434-3 0  9997", "line2": "2 30064  98.6612  11.6306 0066627  71.2018 343.2101 14.14279308977073"}}, "geometry": {"type": "Point", "coordinates": [-171.8587177434625, -24.58008649299807]}}, {"type": "Feature", "properties": {"norad_id": 30065, "name": "FENGYUN 1C DEB", "group": "fengyun-1c-debris", "lat": 34.076255838296994, "lon": 159.25474453482516, "alt_km": 1023.169370159876, "timestamp": "2025-12-27T12:55:14.778981+00:00", "meta": {"OBJECT_NAME": "FENGYUN 1C DEB", "OBJECT_ID": "1999-025PS", "EPOCH": "2025-12-27T05:17:55.475808", "MEAN_MOTION": 13.8692236, "ECCENTRICITY": 0.01310575, "INCLINATION": 98.6859, "RA_OF_ASC_NODE": 333.0244, "ARG_OF_PERICENTER": 352.2089, "MEAN_ANOMALY": 7.7032, "EPHEMERIS_TYPE": 0, "CLASSIFICATION_TYPE": "U", "NORAD_CAT_ID": 30065, "ELEMENT_SET_NO": 999, "REV_AT_EPOCH": 95872, "BSTAR": 0.00021650966, "MEAN_MOTION_DOT": 2.3e-06, "MEAN_MOTION_DDOT": 0}, "tle": {"line1": "1 30065U 99025PS  25361.22078097  .00000230  00000+0  21651-3 0  9993", "line2": "2 30065  98.6859 333.0244 0131057 352.2089   7.7032 13.86922360958726"}}, "geometry": {"type": "Point", "coordinates": [159.25474453482516, 34.076255838296994]}}, {"type": "Feature", "properties": {"norad_id": 30066, "name": "FENGYUN 1C DEB", "group": "fengyun-1c-debris", "lat": -69.97330945370075, "lon": 16.234824297828588, "alt_km": 804.9138016867801, "timestamp": "2025-12-27T12:55:14.778991+00:00", "meta": {"OBJECT_NAME": "FENGYUN 1C DEB", "OBJECT_ID": "1999-025PT", "EPOCH": "2025-12-27T05:05:42.280224", "MEAN_MOTION": 14.19119295, "ECCENTRICITY": 0.01170047, "INCLINATION": 98.6354, "RA_OF_ASC_NODE": 351.2771, "ARG_OF_PERICENTER": 219.8181, "MEAN_ANOMALY": 202.2089, "EPHEMERIS_TYPE": 0, "CLASSIFICATION_TYPE": "U", "NORAD_CAT_ID": 30066, "ELEMENT_SET_NO": 999, "REV_AT_EPOCH": 98042, "BSTAR": 0.00015440582, "MEAN_MOTION_DOT": 3.02e-06, "MEAN_MOTION_DDOT": 0}, "tle": {"line1": "1 30066U 99025PT  25361.21229491  .00000302  00000+0  15441-3 0  9999", "line2": "2 30066  98.6354 351.2771 0117004 219.8181 202.2089 14.19119295980429"}}, "geometry": {"type": "Point", "coordinates": [16.234824297828588, -69.97330945370075]}}, {"type": "Feature", "properties": {"norad_id": 30067, "name": "FENGYUN 1C DEB", "group": "fengyun-1c-debris", "lat": 76.88301621703582, "lon": -153.39724455644895, "alt_km": 767.6162405446466, "timestamp": "2025-12-27T12:55:14.779002+00:00", "meta": {"OBJECT_NAME": "FENGYUN 1C DEB", "OBJECT_ID": "1999-025PU", "EPOCH": "2025-12-27T06:25:24.852000", "MEAN_MOTION": 14.43735013, "ECCENTRICITY": 0.01510797, "INCLINATION": 98.7655, "RA_OF_ASC_NODE": 247.7874, "ARG_OF_PERICENTER": 334.7393, "MEAN_ANOMALY": 137.5939, "EPHEMERIS_TYPE": 0, "CLASSIFICATION_TYPE": "U", "NORAD_CAT_ID": 30067, "ELEMENT_SET_NO": 999, "REV_AT_EPOCH": 99408, "BSTAR": 0.00051347559, "MEAN_MOTION_DOT": 1.951e-05, "MEAN_MOTION_DDOT": 0}, "tle": {"line1": "1 30067U 99025PU  25361.26764875  .00001951  00000+0  51348-3 0  9992", "line2": "2 30067  98.7655 247.7874 0151079 334.7393 137.5939 14.43735013994080"}}, "geometry": {"type": "Point", "coordinates": [-153.39724455644895, 76.88301621703582]}}, {"type": "Feature", "properties": {"norad_id": 30068, "name": "FENGYUN 1C DEB", "group": "fengyun-1c-debris", "lat": 73.26674074753547, "lon": -41.78800232458303, "alt_km": 929.9181899060004, "timestamp": "2025-12-27T12:55:14.779013+00:00", "meta": {"OBJECT_NAME": "FENGYUN 1C DEB", "OBJECT_ID": "1999-025PV", "EPOCH": "2025-12-27T05:45:40.683744", "MEAN_MOTION": 14.12060521, "ECCENTRICITY": 0.01893134, "INCLINATION": 98.7377, "RA_OF_ASC_NODE": 348.6874, "ARG_OF_PERICENTER": 307.5151, "MEAN_ANOMALY": 50.8943, "EPHEMERIS_TYPE": 0, "CLASSIFICATION_TYPE": "U", "NORAD_CAT_ID": 30068, "ELEMENT_SET_NO": 999, "REV_AT_EPOCH": 97548, "BSTAR": 0.00022937057, "MEAN_MOTION_DOT": 4.53e-06, "MEAN_MOTION_DDOT": 0}, "tle": {"line1": "1 30068U 99025PV  25361.24005421  .00000453  00000+0  22937-3 0  9994", "line2": "2 30068  98.7377 348.6874 0189313 307.5151  50.8943 14.12060521975481"}}, "geometry": {"type": "Point", "coordinates": [-41.78800232458303, 73.26674074753547]}}, {"type": "Feature", "properties": {"norad_id": 30069, "name": "FENGYUN 1C DEB", "group": "fengyun-1c-debris", "lat": 25.995849236648603, "lon": 167.28403036899292, "alt_km": 902.6330709579051, "timestamp": "2025-12-27T12:55:14.779023+00:00", "meta": {"OBJECT_NAME": "FENGYUN 1C DEB", "OBJECT_ID": "1999-025PW", "EPOCH": "2025-12-27T05:24:52.151904", "MEAN_MOTION": 14.05238932, "ECCENTRICITY": 0.00493593, "INCLINATION": 98.8028, "RA_OF_ASC_NODE": 342.6469, "ARG_OF_PERICENTER": 13.1084, "MEAN_ANOMALY": 358.7657, "EPHEMERIS_TYPE": 0, "CLASSIFICATION_TYPE": "U", "NORAD_CAT_ID": 30069, "ELEMENT_SET_NO": 999, "REV_AT_EPOCH": 97050, "BSTAR": 0.00031732916, "MEAN_MOTION_DOT": 4.76e-06, "MEAN_MOTION_DDOT": 0}, "tle": {"line1": "1 30069U 99025PW  25361.22560361  .00000476  00000+0  31733-3 0  9991", "line2": "2 30069  98.8028 342.6469 0049359  13.1084 358.7657 14.05238932970505"}}, "geometry": {"type": "Point", "coordinates": [167.28403036899292, 25.995849236648603]}}, {"type": "Feature", "properties": {"norad_id": 30070, "name": "FENGYUN 1C DEB", "group": "fengyun-1c-debris", "lat": -10.670115241075248, "lon": -121.53668963222596, "alt_km": 837.6622997400236, "timestamp": "2025-12-27T12:55:14.779034+00:00", "meta": {"OBJECT_NAME": "FENGYUN 1C DEB", "OBJECT_ID": "1999-025PX", "EPOCH": "2025-12-27T03:35:50.742240", "MEAN_MOTION": 14.10032853, "ECCENTRICITY": 0.03279058, "INCLINATION": 98.2846, "RA_OF_ASC_NODE": 59.6778, "ARG_OF_PERICENTER": 277.4178, "MEAN_ANOMALY": 106.168, "EPHEMERIS_TYPE": 0, "CLASSIFICATION_TYPE": "U", "NORAD_CAT_ID": 30070, "ELEMENT_SET_NO": 999, "REV_AT_EPOCH": 96082, "BSTAR": 0.0018516868, "MEAN_MOTION_DOT": 5.354e-05, "MEAN_MOTION_DDOT": 0}, "tle": {"line1": "1 30070U 99025PX  25361.14989285  .00005354  00000+0  18517-2 0  9998", "line2": "2 30070  98.2846  59.6778 0327905 277.4178 106.1680 14.10032853960827"}}, "geometry": {"type": "Point", "coordinates": [-121.53668963222596, -10.670115241075248]}}]}